[{"OBJECT_NAME":"STARLINK-35157","OBJECT_ID":"2025-218Z","EPOCH":"2026-03-09T14:44:34.046880","MEAN_MOTION":15.05653285,"ECCENTRICITY":0.0002182,"INCLINATION":97.6029,"RA_OF_ASC_NODE":292.9618,"ARG_OF_PERICENTER":37.5996,"MEAN_ANOMALY":322.5383,"EPHEMERIS_TYPE":0,"CLASSIFICATION_TYPE":"U","NORAD_CAT_ID":65814,"ELEMENT_SET_NO":999,"REV_AT_EPOCH":2496,"BSTAR":-0.001014,"MEAN_MOTION_DOT":-0.00014664,"MEAN_MOTION_DDOT":0},{"OBJECT_NAME":"UNKNOWN","OBJECT_ID":"","EPOCH":"2026-03-09T02:53:57.432768","MEAN_MOTION":15.04852502,"ECCENTRICITY":0.0007482,"INCLINATION":86.6587,"RA_OF_ASC_NODE":118.2618,"ARG_OF_PERICENTER":183.1315,"MEAN_ANOMALY":176.9875,"EPHEMERIS_TYPE":0,"CLASSIFICATION_TYPE":"U","NORAD_CAT_ID":82402,"ELEMENT_SET_NO":999,"REV_AT_EPOCH":46745,"BSTAR":0.00051144,"MEAN_MOTION_DOT":7.26e-5,"MEAN_MOTION_DDOT":0}]
